[{"OBJECT_NAME":"STARLINK-2116","OBJECT_ID":"2021-017C","EPOCH":"2026-03-10T00:00:02.999808","MEAN_MOTION":15.83206556,"ECCENTRICITY":0.00033393,"INCLINATION":53.0386,"RA_OF_ASC_NODE":82.6444,"ARG_OF_PERICENTER":325.049,"MEAN_ANOMALY":111.3473,"EPHEMERIS_TYPE":0,"CLASSIFICATION_TYPE":"U","NORAD_CAT_ID":47724,"ELEMENT_SET_NO":999,"REV_AT_EPOCH":599,"BSTAR":0.0013667213,"MEAN_MOTION_DOT":0.00311123,"MEAN_MOTION_DDOT":0},{"OBJECT_NAME":"STARLINK-36383","OBJECT_ID":"2026-036U","EPOCH":"2026-03-09T21:18:23.646816","MEAN_MOTION":15.82126529,"ECCENTRICITY":0.00017772,"INCLINATION":42.999,"RA_OF_ASC_NODE":248.4021,"ARG_OF_PERICENTER":287.492,"MEAN_ANOMALY":72.5758,"EPHEMERIS_TYPE":0,"CLASSIFICATION_TYPE":"U","NORAD_CAT_ID":67922,"ELEMENT_SET_NO":999,"REV_AT_EPOCH":370,"BSTAR":0.0016902307,"MEAN_MOTION_DOT":0.00373062,"MEAN_MOTION_DDOT":0}]
